{
  "type": "FeatureCollection",
  "features": [
    {
      "type": "Feature",
      "properties": {
        "norad_id": 38755,
        "name": "SPOT 6",
        "group": "resource",
        "lat": 36.59625192776669,
        "lon": -114.39045296516476,
        "alt_km": 694.9145661842604,
        "timestamp": "2025-12-20T20:38:44.101014+00:00",
        "meta_object_name": "SPOT 6",
        "meta_object_id": "2012-047A",
        "meta_epoch": "2025-12-20T15:03:12.390336",
        "meta_mean_motion": 14.58539265,
        "meta_eccentricity": 0.00013518,
        "meta_inclination": 98.157,
        "meta_ra_of_asc_node": 59.2669,
        "meta_arg_of_pericenter": 78.2954,
        "meta_mean_anomaly": 281.8397,
        "meta_ephemeris_type": 0,
        "meta_classification_type": "U",
        "meta_norad_cat_id": 38755,
        "meta_element_set_no": 999,
        "meta_rev_at_epoch": 70702,
        "meta_bstar": 9.4531818e-05,
        "meta_mean_motion_dot": 3.94e-06,
        "meta_mean_motion_ddot": 0,
        "tle_line1": "1 38755U 12047A   25354.62722674  .00000394  00000+0  94532-4 0  9999",
        "tle_line2": "2 38755  98.1570  59.2669 0001351  78.2954 281.8397 14.58539265707024"
      },
      "geometry": {
        "type": "Point",
        "coordinates": [
          -114.39045296516476,
          36.59625192776669
        ]
      }
    },
    {
      "type": "Feature",
      "properties": {
        "norad_id": 39019,
        "name": "PLEIADES 1B",
        "group": "resource",
        "lat": 40.35533434571929,
        "lon": 60.36438617339976,
        "alt_km": 694.0427036839865,
        "timestamp": "2025-12-20T20:38:44.101023+00:00",
        "meta_object_name": "PLEIADES 1B",
        "meta_object_id": "2012-068A",
        "meta_epoch": "2025-12-20T13:52:23.394720",
        "meta_mean_motion": 14.58559919,
        "meta_eccentricity": 0.00011974,
        "meta_inclination": 98.1793,
        "meta_ra_of_asc_node": 67.1066,
        "meta_arg_of_pericenter": 84.672,
        "meta_mean_anomaly": 275.4616,
        "meta_ephemeris_type": 0,
        "meta_classification_type": "U",
        "meta_norad_cat_id": 39019,
        "meta_element_set_no": 999,
        "meta_rev_at_epoch": 69481,
        "meta_bstar": 9.8605183e-05,
        "meta_mean_motion_dot": 4.13e-06,
        "meta_mean_motion_ddot": 0,
        "tle_line1": "1 39019U 12068A   25354.57804855  .00000413  00000+0  98605-4 0  9999",
        "tle_line2": "2 39019  98.1793  67.1066 0001197  84.6720 275.4616 14.58559919694817"
      },
      "geometry": {
        "type": "Point",
        "coordinates": [
          60.36438617339976,
          40.35533434571929
        ]
      }
    },
    {
      "type": "Feature",
      "properties": {
        "norad_id": 39030,
        "name": "GOKTURK 2",
        "group": "resource",
        "lat": 24.299467321159195,
        "lon": -167.38316981141293,
        "alt_km": 643.5076389378319,
        "timestamp": "2025-12-20T20:38:44.101033+00:00",
        "meta_object_name": "GOKTURK 2",
        "meta_object_id": "2012-073A",
        "meta_epoch": "2025-12-20T14:01:24.942144",
        "meta_mean_motion": 14.75300083,
        "meta_eccentricity": 0.00012728,
        "meta_inclination": 97.6887,
        "meta_ra_of_asc_node": 195.8516,
        "meta_arg_of_pericenter": 108.8859,
        "meta_mean_anomaly": 251.2489,
        "meta_ephemeris_type": 0,
        "meta_classification_type": "U",
        "meta_norad_cat_id": 39030,
        "meta_element_set_no": 999,
        "meta_rev_at_epoch": 69817,
        "meta_bstar": 3.3096033e-05,
        "meta_mean_motion_dot": 1.77e-06,
        "meta_mean_motion_ddot": 0,
        "tle_line1": "1 39030U 12073A   25354.58431646  .00000177  00000+0  33096-4 0  9993",
        "tle_line2": "2 39030  97.6887 195.8516 0001272 108.8859 251.2489 14.75300083698171"
      },
      "geometry": {
        "type": "Point",
        "coordinates": [
          -167.38316981141293,
          24.299467321159195
        ]
      }
    },
    {
      "type": "Feature",
      "properties": {
        "norad_id": 39084,
        "name": "LANDSAT 8",
        "group": "resource",
        "lat": 10.883945201810036,
        "lon": -115.59649356019426,
        "alt_km": 703.8294273105475,
        "timestamp": "2025-12-20T20:38:44.101044+00:00",
        "meta_object_name": "LANDSAT 8",
        "meta_object_id": "2013-008A",
        "meta_epoch": "2025-12-20T13:16:50.889792",
        "meta_mean_motion": 14.57109859,
        "meta_eccentricity": 0.00010862,
        "meta_inclination": 98.2063,
        "meta_ra_of_asc_node": 62.5112,
        "meta_arg_of_pericenter": 91.0026,
        "meta_mean_anomaly": 269.1297,
        "meta_ephemeris_type": 0,
        "meta_classification_type": "U",
        "meta_norad_cat_id": 39084,
        "meta_element_set_no": 999,
        "meta_rev_at_epoch": 67188,
        "meta_bstar": 7.3459023e-05,
        "meta_mean_motion_dot": 2.86e-06,
        "meta_mean_motion_ddot": 0,
        "tle_line1": "1 39084U 13008A   25354.55336678  .00000286  00000+0  73459-4 0  9995",
        "tle_line2": "2 39084  98.2063  62.5112 0001086  91.0026 269.1297 14.57109859671889"
      },
      "geometry": {
        "type": "Point",
        "coordinates": [
          -115.59649356019426,
          10.883945201810036
        ]
      }
    },
    {
      "type": "Feature",
      "properties": {
        "norad_id": 39086,
        "name": "SARAL",
        "group": "resource",
        "lat": 15.907204546057626,
        "lon": 1.1418266824600958,
        "alt_km": 782.4765875072371,
        "timestamp": "2025-12-20T20:38:44.101054+00:00",
        "meta_object_name": "SARAL",
        "meta_object_id": "2013-009A",
        "meta_epoch": "2025-12-20T14:51:20.513088",
        "meta_mean_motion": 14.32759518,
        "meta_eccentricity": 0.00029596,
        "meta_inclination": 98.5502,
        "meta_ra_of_asc_node": 178.4465,
        "meta_arg_of_pericenter": 93.8067,
        "meta_mean_anomaly": 266.3455,
        "meta_ephemeris_type": 0,
        "meta_classification_type": "U",
        "meta_norad_cat_id": 39086,
        "meta_element_set_no": 999,
        "meta_rev_at_epoch": 67003,
        "meta_bstar": 4.4105457e-05,
        "meta_mean_motion_dot": 7.6e-07,
        "meta_mean_motion_ddot": 0,
        "tle_line1": "1 39086U 13009A   25354.61898742  .00000076  00000+0  44105-4 0  9993",
        "tle_line2": "2 39086  98.5502 178.4465 0002959  93.8067 266.3455 14.32759518670032"
      },
      "geometry": {
        "type": "Point",
        "coordinates": [
          1.1418266824600958,
          15.907204546057626
        ]
      }
    },
    {
      "type": "Feature",
      "properties": {
        "norad_id": 39150,
        "name": "GAOFEN-1",
        "group": "resource",
        "lat": 40.557678388091816,
        "lon": -107.77025203463417,
        "alt_km": 625.15809205594,
        "timestamp": "2025-12-20T20:38:44.101064+00:00",
        "meta_object_name": "GAOFEN-1",
        "meta_object_id": "2013-018A",
        "meta_epoch": "2025-12-20T15:08:25.674144",
        "meta_mean_motion": 14.76493401,
        "meta_eccentricity": 0.00183905,
        "meta_inclination": 97.9324,
        "meta_ra_of_asc_node": 65.1511,
        "meta_arg_of_pericenter": 118.961,
        "meta_mean_anomaly": 241.3446,
        "meta_ephemeris_type": 0,
        "meta_classification_type": "U",
        "meta_norad_cat_id": 39150,
        "meta_element_set_no": 999,
        "meta_rev_at_epoch": 68189,
        "meta_bstar": 0.00011581534,
        "meta_mean_motion_dot": 7.58e-06,
        "meta_mean_motion_ddot": 0,
        "tle_line1": "1 39150U 13018A   25354.63085271  .00000758  00000+0  11582-3 0  9991",
        "tle_line2": "2 39150  97.9324  65.1511 0018390 118.9610 241.3446 14.76493401681895"
      },
      "geometry": {
        "type": "Point",
        "coordinates": [
          -107.77025203463417,
          40.557678388091816
        ]
      }
    },
    {
      "type": "Feature",
      "properties": {
        "norad_id": 39160,
        "name": "VNREDSAT 1",
        "group": "resource",
        "lat": -42.28890912737892,
        "lon": -137.43927068573905,
        "alt_km": 684.5989425707176,
        "timestamp": "2025-12-20T20:38:44.101074+00:00",
        "meta_object_name": "VNREDSAT 1",
        "meta_object_id": "2013-021B",
        "meta_epoch": "2025-12-20T14:42:51.509952",
        "meta_mean_motion": 14.64935413,
        "meta_eccentricity": 0.000123,
        "meta_inclination": 97.9369,
        "meta_ra_of_asc_node": 49.6125,
        "meta_arg_of_pericenter": 80.503,
        "meta_mean_anomaly": 279.6313,
        "meta_ephemeris_type": 0,
        "meta_classification_type": "U",
        "meta_norad_cat_id": 39160,
        "meta_element_set_no": 999,
        "meta_rev_at_epoch": 67414,
        "meta_bstar": 0.00018247956,
        "meta_mean_motion_dot": 9.31e-06,
        "meta_mean_motion_ddot": 0,
        "tle_line1": "1 39160U 13021B   25354.61309618  .00000931  00000+0  18248-3 0  9997",
        "tle_line2": "2 39160  97.9369  49.6125 0001230  80.5030 279.6313 14.64935413674146"
      },
      "geometry": {
        "type": "Point",
        "coordinates": [
          -137.43927068573905,
          -42.28890912737892
        ]
      }
    }
  ]
}